{
    "links": {
        "self": "http://www.neowsapp.com/rest/v1/neo/3433062?api_key=iIulBulltgU6a56xZRHN4H3l9WmuAYTsLGpBGhQ2"
    },
    "id": "3433062",
    "neo_reference_id": "3433062",
    "name": "(2008 UL3)",
    "designation": "2008 UL3",
    "nasa_jpl_url": "http://ssd.jpl.nasa.gov/sbdb.cgi?sstr=3433062",
    "absolute_magnitude_h": 25.4,
    "estimated_diameter": {
        "kilometers": {
            "estimated_diameter_min": 0.022108281,
            "estimated_diameter_max": 0.0494356193
        },
        "meters": {
            "estimated_diameter_min": 22.1082810359,
            "estimated_diameter_max": 49.435619262
        },
        "miles": {
            "estimated_diameter_min": 0.0137374447,
            "estimated_diameter_max": 0.0307178602
        },
        "feet": {
            "estimated_diameter_min": 72.5337327539,
            "estimated_diameter_max": 162.1903570994
        }
    },
    "is_potentially_hazardous_asteroid": false,
    "close_approach_data": [
        {
            "close_approach_date": "2006-02-02",
            "close_approach_date_full": "2006-Feb-02 06:53",
            "epoch_date_close_approach": 1138863180000,
            "relative_velocity": {
                "kilometers_per_second": "12.9867909635",
                "kilometers_per_hour": "46752.4474685708",
                "miles_per_hour": "29050.152706235"
            },
            "miss_distance": {
                "astronomical": "0.3563457877",
                "lunar": "138.6185114153",
                "kilometers": "53308570.823392199",
                "miles": "33124409.9103583862"
            },
            "orbiting_body": "Earth"
        },
        {
            "close_approach_date": "2008-11-15",
            "close_approach_date_full": "2008-Nov-15 16:22",
            "epoch_date_close_approach": 1226766120000,
            "relative_velocity": {
                "kilometers_per_second": "4.0793210051",
                "kilometers_per_hour": "14685.5556184435",
                "miles_per_hour": "9125.0331563601"
            },
            "miss_distance": {
                "astronomical": "0.0800451246",
                "lunar": "31.1375534694",
                "kilometers": "11974580.144044602",
                "miles": "7440659.0735634276"
            },
            "orbiting_body": "Earth"
        },
        {
            "close_approach_date": "2011-10-29",
            "close_approach_date_full": "2011-Oct-29 12:47",
            "epoch_date_close_approach": 1319892420000,
            "relative_velocity": {
                "kilometers_per_second": "12.6298994998",
                "kilometers_per_hour": "45467.6381993567",
                "miles_per_hour": "28251.8221911503"
            },
            "miss_distance": {
                "astronomical": "0.3101475593",
                "lunar": "120.6474005677",
                "kilometers": "46397414.256978691",
                "miles": "28830016.3536642958"
            },
            "orbiting_body": "Earth"
        },
        {
            "close_approach_date": "2177-04-22",
            "close_approach_date_full": "2177-Apr-22 10:14",
            "epoch_date_close_approach": 6541985640000,
            "relative_velocity": {
                "kilometers_per_second": "7.1544391359",
                "kilometers_per_hour": "25755.9808890676",
                "miles_per_hour": "16003.7649029876"
            },
            "miss_distance": {
                "astronomical": "0.4421333751",
                "lunar": "171.9898829139",
                "kilometers": "66142211.170871037",
                "miles": "41098864.2419208306"
            },
            "orbiting_body": "Earth"
        }
    ],
    "orbital_data": {
        "orbit_id": "9",
        "orbit_determination_date": "2017-04-06 09:02:28",
        "first_observation_date": "2008-10-24",
        "last_observation_date": "2008-10-31",
        "data_arc_in_days": 7,
        "observations_used": 23,
        "orbit_uncertainty": "8",
        "minimum_orbit_intersection": ".0705162",
        "jupiter_tisserand_invariant": "4.985",
        "epoch_osculation": "2454765.5",
        "eccentricity": ".2240985703082729",
        "semi_major_axis": "1.294631092051966",
        "inclination": "6.582773367689072",
        "ascending_node_longitude": "205.7815353413064",
        "orbital_period": "538.0436078655758",
        "perihelion_distance": "1.004506115246482",
        "perihelion_argument": "240.6998315082122",
        "aphelion_distance": "1.584756068857449",
        "perihelion_time": "2454819.117500491351",
        "mean_anomaly": "324.1250264946762",
        "mean_motion": ".6690907479193433",
        "equinox": "J2000",
        "orbit_class": {
            "orbit_class_type": "APO",
            "orbit_class_description": "Near-Earth asteroid orbits which cross the Earth’s orbit similar to that of 1862 Apollo",
            "orbit_class_range": "a (semi-major axis) > 1.0 AU; q (perihelion) < 1.017 AU"
        }
    },
    "is_sentry_object": false
}